CCSDS_OMM_VERS = 2.0
CREATION_DATE  = 
ORIGINATOR     = 

OBJECT_NAME    = SHIJIAN-30A
OBJECT_ID      = 2025-266A
CENTER_NAME    = EARTH
REF_FRAME      = TEME
TIME_SYSTEM    = UTC
MEAN_ELEMENT_THEORY = SGP/SGP4

EPOCH          = 2025-12-02T04:56:24.664992
MEAN_MOTION    = 15.15298193
ECCENTRICITY   = .00127442
INCLINATION    = 51.7993
RA_OF_ASC_NODE = 22.2044
ARG_OF_PERICENTER = 318.7753
MEAN_ANOMALY   = 41.2260

EPHEMERIS_TYPE = 0
CLASSIFICATION_TYPE = U
NORAD_CAT_ID   = 66545
ELEMENT_SET_NO = 999
REV_AT_EPOCH   = 198
BSTAR          = .76763684E-3
MEAN_MOTION_DOT = .14383E-3
MEAN_MOTION_DDOT = 0

CCSDS_OMM_VERS = 2.0
CREATION_DATE  = 
ORIGINATOR     = 

OBJECT_NAME    = SHIJIAN-30B
OBJECT_ID      = 2025-266B
CENTER_NAME    = EARTH
REF_FRAME      = TEME
TIME_SYSTEM    = UTC
MEAN_ELEMENT_THEORY = SGP/SGP4

EPOCH          = 2025-12-02T04:57:54.313632
MEAN_MOTION    = 15.15354686
ECCENTRICITY   = .00104153
INCLINATION    = 51.7976
RA_OF_ASC_NODE = 22.2095
ARG_OF_PERICENTER = 321.6904
MEAN_ANOMALY   = 38.3331

EPHEMERIS_TYPE = 0
CLASSIFICATION_TYPE = U
NORAD_CAT_ID   = 66546
ELEMENT_SET_NO = 999
REV_AT_EPOCH   = 198
BSTAR          = .88804892E-3
MEAN_MOTION_DOT = .1671E-3
MEAN_MOTION_DDOT = 0

CCSDS_OMM_VERS = 2.0
CREATION_DATE  = 
ORIGINATOR     = 

OBJECT_NAME    = SHIJIAN-30C
OBJECT_ID      = 2025-266C
CENTER_NAME    = EARTH
REF_FRAME      = TEME
TIME_SYSTEM    = UTC
MEAN_ELEMENT_THEORY = SGP/SGP4

EPOCH          = 2025-12-02T04:59:02.135040
MEAN_MOTION    = 15.15396644
ECCENTRICITY   = .00113228
INCLINATION    = 51.7988
RA_OF_ASC_NODE = 22.2150
ARG_OF_PERICENTER = 313.9309
MEAN_ANOMALY   = 46.0732

EPHEMERIS_TYPE = 0
CLASSIFICATION_TYPE = U
NORAD_CAT_ID   = 66547
ELEMENT_SET_NO = 999
REV_AT_EPOCH   = 198
BSTAR          = .76968455E-3
MEAN_MOTION_DOT = .14457E-3
MEAN_MOTION_DDOT = 0

CCSDS_OMM_VERS = 2.0
CREATION_DATE  = 
ORIGINATOR     = 

OBJECT_NAME    = CZ-2C R/B
OBJECT_ID      = 2025-266D
CENTER_NAME    = EARTH
REF_FRAME      = TEME
TIME_SYSTEM    = UTC
MEAN_ELEMENT_THEORY = SGP/SGP4

EPOCH          = 2025-12-02T06:45:19.540224
MEAN_MOTION    = 15.29814822
ECCENTRICITY   = .0084859
INCLINATION    = 52.0549
RA_OF_ASC_NODE = 21.0930
ARG_OF_PERICENTER = 137.4700
MEAN_ANOMALY   = 223.2901

EPHEMERIS_TYPE = 0
CLASSIFICATION_TYPE = U
NORAD_CAT_ID   = 66548
ELEMENT_SET_NO = 999
REV_AT_EPOCH   = 201
BSTAR          = .4562401E-3
MEAN_MOTION_DOT = .14541E-3
MEAN_MOTION_DDOT = 0

CCSDS_OMM_VERS = 2.0
CREATION_DATE  = 
ORIGINATOR     = 

OBJECT_NAME    = SHIJIAN-28
OBJECT_ID      = 2025-277A
CENTER_NAME    = EARTH
REF_FRAME      = TEME
TIME_SYSTEM    = UTC
MEAN_ELEMENT_THEORY = SGP/SGP4

EPOCH          = 2025-11-30T18:06:43.124256
MEAN_MOTION    = 2.28019775
ECCENTRICITY   = .7300519
INCLINATION    = 14.4344
RA_OF_ASC_NODE = 275.4056
ARG_OF_PERICENTER = 179.5026
MEAN_ANOMALY   = 182.3580

EPHEMERIS_TYPE = 0
CLASSIFICATION_TYPE = U
NORAD_CAT_ID   = 66549
ELEMENT_SET_NO = 999
REV_AT_EPOCH   = 4
BSTAR          = .62085E-3
MEAN_MOTION_DOT = .6315E-4
MEAN_MOTION_DDOT = 0

CCSDS_OMM_VERS = 2.0
CREATION_DATE  = 
ORIGINATOR     = 

OBJECT_NAME    = CZ-7A R/B
OBJECT_ID      = 2025-277B
CENTER_NAME    = EARTH
REF_FRAME      = TEME
TIME_SYSTEM    = UTC
MEAN_ELEMENT_THEORY = SGP/SGP4

EPOCH          = 2025-12-01T03:57:29.558880
MEAN_MOTION    = 2.40161271
ECCENTRICITY   = .72362879
INCLINATION    = 14.4278
RA_OF_ASC_NODE = 275.3780
ARG_OF_PERICENTER = 178.5774
MEAN_ANOMALY   = 186.2906

EPHEMERIS_TYPE = 0
CLASSIFICATION_TYPE = U
NORAD_CAT_ID   = 66550
ELEMENT_SET_NO = 999
REV_AT_EPOCH   = 5
BSTAR          = .44603974E-4
MEAN_MOTION_DOT = .16399E-3
MEAN_MOTION_DDOT = -.71945E-7

CCSDS_OMM_VERS = 2.0
CREATION_DATE  = 
ORIGINATOR     = 

OBJECT_NAME    = GLOBAL-33
OBJECT_ID      = 2025-267A
CENTER_NAME    = EARTH
REF_FRAME      = TEME
TIME_SYSTEM    = UTC
MEAN_ELEMENT_THEORY = SGP/SGP4

EPOCH          = 2025-12-01T20:06:06.812640
MEAN_MOTION    = 15.31226532
ECCENTRICITY   = .00056758
INCLINATION    = 42.0184
RA_OF_ASC_NODE = 119.9156
ARG_OF_PERICENTER = 335.5571
MEAN_ANOMALY   = 24.4997

EPHEMERIS_TYPE = 0
CLASSIFICATION_TYPE = U
NORAD_CAT_ID   = 66554
ELEMENT_SET_NO = 999
REV_AT_EPOCH   = 173
BSTAR          = .42244628E-3
MEAN_MOTION_DOT = .12793E-3
MEAN_MOTION_DDOT = 0

CCSDS_OMM_VERS = 2.0
CREATION_DATE  = 
ORIGINATOR     = 

OBJECT_NAME    = ELECTRON KICK STAGE R/B
OBJECT_ID      = 2025-267B
CENTER_NAME    = EARTH
REF_FRAME      = TEME
TIME_SYSTEM    = UTC
MEAN_ELEMENT_THEORY = SGP/SGP4

EPOCH          = 2025-12-02T02:14:34.409184
MEAN_MOTION    = 15.32043166
ECCENTRICITY   = .00074806
INCLINATION    = 42.0172
RA_OF_ASC_NODE = 118.3743
ARG_OF_PERICENTER = 336.8276
MEAN_ANOMALY   = 23.2223

EPHEMERIS_TYPE = 0
CLASSIFICATION_TYPE = U
NORAD_CAT_ID   = 66555
ELEMENT_SET_NO = 999
REV_AT_EPOCH   = 177
BSTAR          = .85113496E-3
MEAN_MOTION_DOT = .26769E-3
MEAN_MOTION_DDOT = 0

CCSDS_OMM_VERS = 2.0
CREATION_DATE  = 
ORIGINATOR     = 

OBJECT_NAME    = STARLINK-35699
OBJECT_ID      = 2025-268A
CENTER_NAME    = EARTH
REF_FRAME      = TEME
TIME_SYSTEM    = UTC
MEAN_ELEMENT_THEORY = SGP/SGP4

EPOCH          = 2025-12-02T06:00:02.999808
MEAN_MOTION    = 15.78384389
ECCENTRICITY   = .00015446
INCLINATION    = 42.9971
RA_OF_ASC_NODE = 183.4574
ARG_OF_PERICENTER = 273.5120
MEAN_ANOMALY   = 228.7408

EPHEMERIS_TYPE = 0
CLASSIFICATION_TYPE = U
NORAD_CAT_ID   = 66557
ELEMENT_SET_NO = 999
REV_AT_EPOCH   = 298
BSTAR          = -.98624797E-2
MEAN_MOTION_DOT = -.1542027E-1
MEAN_MOTION_DDOT = 0

CCSDS_OMM_VERS = 2.0
CREATION_DATE  = 
ORIGINATOR     = 

OBJECT_NAME    = STARLINK-35695
OBJECT_ID      = 2025-268B
CENTER_NAME    = EARTH
REF_FRAME      = TEME
TIME_SYSTEM    = UTC
MEAN_ELEMENT_THEORY = SGP/SGP4

EPOCH          = 2025-12-02T06:00:02.999808
MEAN_MOTION    = 15.78375301
ECCENTRICITY   = .00015837
INCLINATION    = 42.9973
RA_OF_ASC_NODE = 183.4525
ARG_OF_PERICENTER = 273.1852
MEAN_ANOMALY   = 231.0434

EPHEMERIS_TYPE = 0
CLASSIFICATION_TYPE = U
NORAD_CAT_ID   = 66558
ELEMENT_SET_NO = 999
REV_AT_EPOCH   = 298
BSTAR          = -.99065794E-2
MEAN_MOTION_DOT = -.1547524E-1
MEAN_MOTION_DDOT = 0

CCSDS_OMM_VERS = 2.0
CREATION_DATE  = 
ORIGINATOR     = 

OBJECT_NAME    = STARLINK-35419
OBJECT_ID      = 2025-268C
CENTER_NAME    = EARTH
REF_FRAME      = TEME
TIME_SYSTEM    = UTC
MEAN_ELEMENT_THEORY = SGP/SGP4

EPOCH          = 2025-12-02T06:00:02.999808
MEAN_MOTION    = 15.78344543
ECCENTRICITY   = .00016624
INCLINATION    = 42.9970
RA_OF_ASC_NODE = 183.4475
ARG_OF_PERICENTER = 273.1511
MEAN_ANOMALY   = 233.1468

EPHEMERIS_TYPE = 0
CLASSIFICATION_TYPE = U
NORAD_CAT_ID   = 66559
ELEMENT_SET_NO = 999
REV_AT_EPOCH   = 298
BSTAR          = -.10004785E-1
MEAN_MOTION_DOT = -.1559067E-1
MEAN_MOTION_DDOT = 0

CCSDS_OMM_VERS = 2.0
CREATION_DATE  = 
ORIGINATOR     = 

OBJECT_NAME    = STARLINK-35411
OBJECT_ID      = 2025-268D
CENTER_NAME    = EARTH
REF_FRAME      = TEME
TIME_SYSTEM    = UTC
MEAN_ELEMENT_THEORY = SGP/SGP4

EPOCH          = 2025-12-02T06:00:02.999808
MEAN_MOTION    = 15.78332659
ECCENTRICITY   = .00015868
INCLINATION    = 42.9973
RA_OF_ASC_NODE = 183.4425
ARG_OF_PERICENTER = 273.6926
MEAN_ANOMALY   = 234.6032

EPHEMERIS_TYPE = 0
CLASSIFICATION_TYPE = U
NORAD_CAT_ID   = 66560
ELEMENT_SET_NO = 999
REV_AT_EPOCH   = 298
BSTAR          = -.10080725E-1
MEAN_MOTION_DOT = -.1568589E-1
MEAN_MOTION_DDOT = 0

