SHIJIAN-30A             
1 66545U 25266A   25336.20584103  .00014383  00000+0  76764-3 0  9990
2 66545  51.7993  22.2044 0012744 318.7753  41.2260 15.15298193  1985
SHIJIAN-30B             
1 66546U 25266B   25336.20687863  .00016710  00000+0  88805-3 0  9993
2 66546  51.7976  22.2095 0010415 321.6904  38.3331 15.15354686  1983
SHIJIAN-30C             
1 66547U 25266C   25336.20766360  .00014457  00000+0  76968-3 0  9997
2 66547  51.7988  22.2150 0011322 313.9309  46.0732 15.15396644  1981
CZ-2C R/B               
1 66548U 25266D   25336.28147616  .00014541  00000+0  45624-3 0  9992
2 66548  52.0549  21.0930 0084859 137.4700 223.2901 15.29814822  2011
SHIJIAN-28              
1 66549U 25277A   25334.75466579  .00006315  00000+0  62085-3 0  9997
2 66549  14.4344 275.4056 7300519 179.5026 182.3580  2.28019775    48
CZ-7A R/B               
1 66550U 25277B   25335.16492545  .00016399 -71945-7  44604-4 0  9993
2 66550  14.4278 275.3780 7236287 178.5774 186.2906  2.40161271    57
GLOBAL-33               
1 66554U 25267A   25335.83757885  .00012793  00000+0  42245-3 0  9998
2 66554  42.0184 119.9156 0005675 335.5571  24.4997 15.31226532  1737
ELECTRON KICK STAGE R/B 
1 66555U 25267B   25336.09345381  .00026769  00000+0  85113-3 0  9991
2 66555  42.0172 118.3743 0007480 336.8276  23.2223 15.32043166  1776
STARLINK-35699          
1 66557U 25268A   25336.25003472 -.01542027  00000+0 -98625-2 0  9998
2 66557  42.9971 183.4574 0001544 273.5120 228.7408 15.78384389  2985
STARLINK-35695          
1 66558U 25268B   25336.25003472 -.01547524  00000+0 -99066-2 0  9996
2 66558  42.9973 183.4525 0001583 273.1852 231.0434 15.78375301  2985
STARLINK-35419          
1 66559U 25268C   25336.25003472 -.01559067  00000+0 -10005-1 0  9997
2 66559  42.9970 183.4475 0001662 273.1511 233.1468 15.78344543  2981
STARLINK-35411          
1 66560U 25268D   25336.25003472 -.01568589  00000+0 -10081-1 0  9992
2 66560  42.9973 183.4425 0001586 273.6926 234.6032 15.78332659  2989
